OBJECT C                
1 57582U 23117C   24146.14205613  .00009496  00000+0  50083-3 0  9996
2 57582  97.4872 218.5151 0011039  22.7977 337.3744 15.15719451 43699
